ORBCOMM FM37            
1 33064U 08031E   25257.48781275  .00001038  00000+0  16341-3 0  9990
2 33064  48.4395 279.0111 0005026  30.8830 122.1177 14.80055704927279
ORBCOMM FM40            
1 33065U 08031F   25258.31407318  .00002438  00000+0  32777-3 0  9993
2 33065  48.4411 257.5836 0006029  50.9008 322.7330 14.82401490927535
VESSELSAT 1             
1 37840U 11058C   25258.17208907  .00000401  00000+0  74272-4 0  9993
2 37840  19.9615 269.3852 0013819  96.3805 263.8173 14.11369935719035
ORBCOMM FM109           
1 40086U 14040A   25258.28425673  .00000586  00000+0  16189-3 0  9992
2 40086  47.0039 310.7440 0001205 354.6220   5.4652 14.58300743594210
ORBCOMM FM107           
1 40087U 14040B   25258.17124804  .00000679  00000+0  18165-3 0  9992
2 40087  47.0057 312.2057 0001811 299.2761  60.7944 14.58382964594278
ORBCOMM FM106           
1 40088U 14040C   25257.97757627  .00000694  00000+0  14699-3 0  9990
2 40088  47.0597 128.0155 0016378 124.6979 235.5458 14.69641131596681
ORBCOMM FM111           
1 40089U 14040D   25258.21462841  .00003504  00000+0  40948-3 0  9999
2 40089  47.0023 324.8125 0031079 264.4023  95.3330 14.86799107603627
ORBCOMM FM104           
1 40090U 14040E   25258.25882806  .00000658  00000+0  18306-3 0  9992
2 40090  47.0069 346.4876 0017277 256.3796 103.5165 14.56772390593755
